CCSDS_OEM_VERS = 1.0
CREATION_DATE  = 2017-05-11T11:10:22
ORIGINATOR     = GMAT USER

META_START
OBJECT_NAME          = MOPSSat_alt_35785_km_RAAN_90_003
OBJECT_ID            = SatId
CENTER_NAME          = Earth
REF_FRAME            = EME2000
TIME_SYSTEM          = UTC
START_TIME           = 2017-01-01T00:00:00.000
USEABLE_START_TIME   = 2017-01-01T00:00:00.000
USEABLE_STOP_TIME    = 2017-01-02T00:00:00.000
STOP_TIME            = 2017-01-02T00:00:00.000
INTERPOLATION        = Lagrange
INTERPOLATION_DEGREE = 7 
META_STOP


                                                                                   

2017-01-01T22:55:00.000   1.111128589836148e+04   4.067406448550350e+04  -1.887759044329744e+00  -2.965909954131266e+00   8.102713964303074e-01   1.061463628228707e-04
2017-01-01T22:55:10.000   1.108162384669290e+04   4.068215638447163e+04  -1.886696953972173e+00  -2.966500068798631e+00   8.081083124333981e-01   1.062717007089359e-04
2017-01-01T22:55:20.000   1.105195590200427e+04   4.069022665038556e+04  -1.885633610432480e+00  -2.967088605992117e+00   8.059447988478854e-01   1.063970009486782e-04
2017-01-01T22:55:30.000   1.102228208007196e+04   4.069827527895550e+04  -1.884569014087562e+00  -2.967675565398948e+00   8.037808568240147e-01   1.065222634589614e-04
2017-01-01T22:55:40.000   1.099260239664263e+04   4.070630226591222e+04  -1.883503165313978e+00  -2.968260946707845e+00   8.016164875098598e-01   1.066474881568013e-04
2017-01-01T22:55:50.000   1.096291686736214e+04   4.071430760702534e+04  -1.882436064485351e+00  -2.968844749610364e+00   7.994516920461464e-01   1.067726749596763e-04
2017-01-01T22:56:00.000   1.093322550788191e+04   4.072229129807527e+04  -1.881367711976221e+00  -2.969426973798844e+00   7.972864715740051e-01   1.068978237850680e-04
2017-01-01T22:56:10.000   1.090352833386963e+04   4.073025333485050e+04  -1.880298108162435e+00  -2.970007618966215e+00   7.951208272357529e-01   1.070229345504204e-04
2017-01-01T22:56:20.000   1.087382536103849e+04   4.073819371313827e+04  -1.879227253422139e+00  -2.970586684805318e+00   7.929547601770253e-01   1.071480071730052e-04
2017-01-01T22:56:30.000   1.084411660517133e+04   4.074611242871994e+04  -1.878155148136726e+00  -2.971164171008555e+00   7.907882715485358e-01   1.072730415698318e-04
2017-01-01T22:56:40.000   1.081440208203310e+04   4.075400947739349e+04  -1.877081792687642e+00  -2.971740077269554e+00   7.886213624996944e-01   1.073980376580123e-04
2017-01-01T22:56:50.000   1.078468180776293e+04   4.076188485487179e+04  -1.876007187470656e+00  -2.972314403275721e+00   7.864540342071966e-01   1.075229953531212e-04
2017-01-01T22:57:00.000   1.075495579839912e+04   4.076973855690635e+04  -1.874931332878595e+00  -2.972887148717292e+00   7.842862878403860e-01   1.076479145711851e-04
2017-01-01T22:57:10.000   1.072522407005570e+04   4.077757057924123e+04  -1.873854229307754e+00  -2.973458313283950e+00   7.821181245741285e-01   1.077727952279414e-04
2017-01-01T22:57:20.000   1.069548663823859e+04   4.078538091779323e+04  -1.872775877133131e+00  -2.974027896677979e+00   7.799495455389440e-01   1.078976372417142e-04
2017-01-01T22:57:30.000   1.066574351852766e+04   4.079316956847187e+04  -1.871696276733114e+00  -2.974595898601133e+00   7.777805518707444e-01   1.080224405305442e-04
2017-01-01T22:57:40.000   1.063599472642225e+04   4.080093652722056e+04  -1.870615428483910e+00  -2.975162318757635e+00   7.756111446995702e-01   1.081472050128414e-04
2017-01-01T22:57:50.000   1.060624027772571e+04   4.080868178991309e+04  -1.869533332773374e+00  -2.975727156846630e+00   7.734413251776296e-01   1.082719306057528e-04
2017-01-01T22:58:00.000   1.057648018826010e+04   4.081640535243124e+04  -1.868449989990788e+00  -2.976290412567845e+00   7.712710944584965e-01   1.083966172263797e-04
2017-01-01T22:58:10.000   1.054671447386588e+04   4.082410721066374e+04  -1.867365400526798e+00  -2.976852085621514e+00   7.691004536970879e-01   1.085212647917713e-04
2017-01-01T22:58:20.000   1.051694315068890e+04   4.083178736043497e+04  -1.866279564784000e+00  -2.977412175703182e+00   7.669294040705880e-01   1.086458732177488e-04
2017-01-01T22:58:30.000   1.048716623479411e+04   4.083944579760214e+04  -1.865192483162743e+00  -2.977970682510776e+00   7.647579467502842e-01   1.087704424204966e-04
2017-01-01T22:58:40.000   1.045738374231766e+04   4.084708251801645e+04  -1.864104156066701e+00  -2.978527605741800e+00   7.625860829126546e-01   1.088949723159346e-04
2017-01-01T22:58:50.000   1.042759568879482e+04   4.085469751769587e+04  -1.863014583878321e+00  -2.979082945105906e+00   7.604138136903580e-01   1.090194628225077e-04
2017-01-01T22:59:00.000   1.039780208983195e+04   4.086229079265219e+04  -1.861923766983359e+00  -2.979636700312302e+00   7.582411402212392e-01   1.091439138583959e-04
2017-01-01T22:59:10.000   1.036800296095470e+04   4.086986233893065e+04  -1.860831705765361e+00  -2.980188871072633e+00   7.560680636372551e-01   1.092683253421431e-04
2017-01-01T22:59:20.000   1.033819831799313e+04   4.087741215250878e+04  -1.859738400619630e+00  -2.980739457093603e+00   7.538945850925636e-01   1.093926971910616e-04
2017-01-01T22:59:30.000   1.030838817679598e+04   4.088494022937229e+04  -1.858643851942903e+00  -2.981288458082523e+00   7.517207057426833e-01   1.095170293224126e-04
2017-01-01T22:59:40.000   1.027857255323037e+04   4.089244656551394e+04  -1.857548060133284e+00  -2.981835873747202e+00   7.495464267444741e-01   1.096413216534122e-04
2017-01-01T22:59:50.000   1.024875146346919e+04   4.089993115686416e+04  -1.856451025600938e+00  -2.982381703790915e+00   7.473717492770915e-01   1.097655741000203e-04
2017-01-01T23:00:00.000   1.021892492360425e+04   4.090739399938563e+04  -1.855352748753752e+00  -2.982925947919280e+00   7.451966745137820e-01   1.098897865785660e-04
2017-01-01T23:00:10.000   1.018909294979856e+04   4.091483508903558e+04  -1.854253230002961e+00  -2.983468605837525e+00   7.430212036329813e-01   1.100139590051079e-04
2017-01-01T23:00:20.000   1.015925555761318e+04   4.092225442193395e+04  -1.853152469738342e+00  -2.984009677262735e+00   7.408453377692300e-01   1.101380912982573e-04
2017-01-01T23:00:30.000   1.012941276268033e+04   4.092965199419503e+04  -1.852050468353011e+00  -2.984549161911593e+00   7.386690780622563e-01   1.102621833763540e-04
2017-01-01T23:00:40.000   1.009956458055124e+04   4.093702780196603e+04  -1.850947226237836e+00  -2.985087059503173e+00   7.364924256458855e-01   1.103862351581092e-04
2017-01-01T23:00:50.000   1.006971102708206e+04   4.094438184132845e+04  -1.849842743795557e+00  -2.985623369751758e+00   7.343153816761736e-01   1.105102465609719e-04
2017-01-01T23:01:00.000   1.003985211814752e+04   4.095171410837207e+04  -1.848737021430348e+00  -2.986158092372241e+00   7.321379473105373e-01   1.106342175023489e-04
2017-01-01T23:01:10.000   1.000998786964070e+04   4.095902459919386e+04  -1.847630059547758e+00  -2.986691227080029e+00   7.299601237077272e-01   1.107581478995945e-04
2017-01-01T23:01:20.000   9.980118297760833e+03   4.096631330983047e+04  -1.846521858565512e+00  -2.987222773586140e+00   7.277819120488224e-01   1.108820376688447e-04
2017-01-01T23:01:30.000   9.950243418625883e+03   4.097358023635022e+04  -1.845412418899015e+00  -2.987752731603891e+00   7.256033135089729e-01   1.110058867265969e-04
2017-01-01T23:01:40.000   9.920363248427953e+03   4.098082537481582e+04  -1.844301740967160e+00  -2.988281100846198e+00   7.234243292687377e-01   1.111296949890741e-04
2017-01-01T23:01:50.000   9.890477802747706e+03   4.098804872145071e+04  -1.843189825166836e+00  -2.988807881037693e+00   7.212449604640870e-01   1.112534623750488e-04
2017-01-01T23:02:00.000   9.860587097241651e+03   4.099525027247206e+04  -1.842076671898467e+00  -2.989333071902552e+00   7.190652082365193e-01   1.113771888030107e-04
2017-01-01T23:02:10.000   9.830691147464737e+03   4.100243002413413e+04  -1.840962281559435e+00  -2.989856673167655e+00   7.168850737201291e-01   1.115008741918982e-04
2017-01-01T23:02:20.000   9.800789969347126e+03   4.100958797261117e+04  -1.839846654561727e+00  -2.990378684554046e+00   7.147045580763733e-01   1.116245184591290e-04
2017-01-01T23:02:30.000   9.770883578800851e+03   4.101672411409446e+04  -1.838729791317398e+00  -2.990899105784012e+00   7.125236624653856e-01   1.117481215222256e-04
2017-01-01T23:02:40.000   9.740971991807573e+03   4.102383844477051e+04  -1.837611692241802e+00  -2.991417936579490e+00   7.103423880523771e-01   1.118716832984514e-04
2017-01-01T23:02:50.000   9.711055224395064e+03   4.103093096082843e+04  -1.836492357752798e+00  -2.991935176662609e+00   7.081607360059220e-01   1.119952037049138e-04
2017-01-01T23:03:00.000   9.681133292607066e+03   4.103800165846566e+04  -1.835371788269559e+00  -2.992450825756101e+00   7.059787074957594e-01   1.121186826586820e-04
2017-01-01T23:03:10.000   9.651206212492556e+03   4.104505053389080e+04  -1.834249984212176e+00  -2.992964883583513e+00   7.037963036920102e-01   1.122421200768345e-04
2017-01-01T23:03:20.000   9.621273999998886e+03   4.105207758334936e+04  -1.833126945997693e+00  -2.993477349871087e+00   7.016135257573831e-01   1.123655158768899e-04
2017-01-01T23:03:30.000   9.591336671042905e+03   4.105908280310619e+04  -1.832002674042720e+00  -2.993988224346468e+00   6.994303748523633e-01   1.124888699765243e-04
2017-01-01T23:03:40.000   9.561394241510989e+03   4.106606618944565e+04  -1.830877168763453e+00  -2.994497506738730e+00   6.972468521352141e-01   1.126121822935663e-04
2017-01-01T23:03:50.000   9.531446727187453e+03   4.107302773868737e+04  -1.829750430572939e+00  -2.995005196779513e+00   6.950629587567553e-01   1.127354527463077e-04
2017-01-01T23:04:00.000   9.501494143861783e+03   4.107996744716198e+04  -1.828622459885137e+00  -2.995511294201266e+00   6.928786958681836e-01   1.128586812530456e-04
